      2.10          N: GNSS NAV DATA                        RINEX VERSION / TYPE
fic2rin                                 10/02/2024 00:59:01 PGM / RUN BY / DATE
                                                            END OF HEADER
16 24 10  1  8  0  0.0 -.166581943631D-03  .101181285572D-10  .000000000000D+00
     .500000000000D+02  .626562500000D+02  .473734018638D-08 -.146445923859D+01
     .336207449436D-05  .139978406951D-01  .474788248539D-05  .515362367249D+04
     .201600000000D+06  .331550836563D-06 -.224126914684D+01 -.596046447754D-07
     .961000098266D+00  .279500000000D+03  .845471001307D+00 -.822248535666D-08
     .552165857067D-09  .100000000000D+01  .233400000000D+04  .000000000000D+00
     .240000000000D+01  .000000000000D+00 -.102445483208D-07  .500000000000D+02
     .194400000000D+06  .400000000000D+01
26 24 10  1  8  0  0.0  .664275139570D-04 -.898126018001D-11  .000000000000D+00
     .470000000000D+02  .723750000000D+02  .539986778331D-08 -.576501295604D+00
     .395998358727D-05  .928448431659D-02  .604800879955D-05  .515370440674D+04
     .201600000000D+06  .145286321640D-06 -.241187704219D+01  .111758708954D-06
     .930541485542D+00  .244750000000D+03  .557884660947D+00 -.872572060414D-08
     .536808074497D-09  .100000000000D+01  .233400000000D+04  .000000000000D+00
     .240000000000D+01  .000000000000D+00  .651925802231D-08  .470000000000D+02
     .194400000000D+06  .400000000000D+01
17 24 10  1  8  0  0.0  .610048882663D-03 -.121644916362D-10  .000000000000D+00
     .350000000000D+02 -.646250000000D+02  .470948188311D-08 -.252482322415D+01
    -.308826565742D-05  .135091058910D-01  .488385558128D-05  .515354609871D+04
     .201600000000D+06  .102445483208D-06 -.121991991372D+01  .154599547386D-06
     .966692742610D+00  .284656250000D+03 -.129341542584D+01 -.803533470394D-08
    -.265368196508D-09  .100000000000D+01  .233400000000D+04  .000000000000D+00
     .240000000000D+01  .000000000000D+00 -.111758708954D-07  .350000000000D+02
     .194400000000D+06  .400000000000D+01
20 24 10  1  8  0  0.0  .370102468878D-03 -.341060513165D-12  .000000000000D+00
     .280000000000D+02  .773125000000D+02  .467376610969D-08  .228373116479D+01
     .387057662010D-05  .379734975286D-02  .755488872528D-05  .515360892677D+04
     .201600000000D+06 -.111758708954D-06  .634721485280D+00 -.558793544769D-07
     .955550113995D+00  .232625000000D+03 -.252855071016D+01 -.816284001505D-08
     .312513017422D-09  .100000000000D+01  .233400000000D+04  .000000000000D+00
     .240000000000D+01  .000000000000D+00 -.838190317154D-08  .280000000000D+02
     .194400000000D+06  .400000000000D+01
25 24 10  1  8  0  0.0  .499610789120D-03  .000000000000D+00  .000000000000D+00
     .500000000000D+02  .738750000000D+02  .502056626959D-08  .166863947125D+00
     .372156500816D-05  .118224364705D-01  .595860183239D-05  .515372692680D+04
     .201600000000D+06 -.128522515297D-06 -.234700567645D+01  .184401869774D-06
     .949713492179D+00  .263531250000D+03  .109313966010D+01 -.857571435578D-08
     .475734101949D-09  .100000000000D+01  .233400000000D+04  .000000000000D+00
     .240000000000D+01  .000000000000D+00  .558793544769D-08  .500000000000D+02
     .194400000000D+06  .400000000000D+01
19 24 10  1  8  0  0.0  .544980634004D-03  .477484718431D-11  .000000000000D+00
     .340000000000D+02 -.669687500000D+02  .480377152494D-08 -.596206420311D+00
    -.353157520294D-05  .997800054029D-02  .546686351299D-05  .515373472786D+04
     .201600000000D+06  .111758708954D-07 -.117565642919D+01 -.173225998878D-06
     .965922317284D+00  .276812500000D+03  .265757150913D+01 -.837499170916D-08
    -.263225250103D-09  .100000000000D+01  .233400000000D+04  .000000000000D+00
     .240000000000D+01  .000000000000D+00 -.153668224812D-07  .340000000000D+02
     .194400000000D+06  .400000000000D+01
15 24 10  1  8  0  0.0  .210571102798D-03  .443378667114D-11  .000000000000D+00
     .770000000000D+02 -.509375000000D+02  .527557689181D-08  .284839523388D+01
    -.258907675743D-05  .161638697609D-01  .289082527161D-05  .515370828819D+04
     .201600000000D+06  .171363353729D-06  .170480955461D+01 -.139698386192D-06
     .936231917954D+00  .307875000000D+03  .136128173599D+01 -.840034990829D-08
    -.352157525917D-09  .100000000000D+01  .233400000000D+04  .000000000000D+00
     .240000000000D+01  .000000000000D+00 -.102445483208D-07  .770000000000D+02
     .194400000000D+06  .400000000000D+01
14 24 10  1  8  0  0.0  .507721677423D-03  .852651282912D-11  .000000000000D+00
     .840000000000D+02  .681875000000D+02  .510699844127D-08  .180942601123D+00
     .363029539585D-05  .489974766970D-02  .596791505814D-05  .515369539452D+04
     .201600000000D+06  .484287738800D-07 -.230544610194D+01  .428408384323D-07
     .944974114513D+00  .256750000000D+03 -.285437166239D+01 -.849535386559D-08
     .532165023952D-09  .100000000000D+01  .233400000000D+04  .000000000000D+00
     .240000000000D+01  .000000000000D+00 -.791624188423D-08  .840000000000D+02
     .194400000000D+06  .400000000000D+01
28 24 10  1  8  0  0.0 -.430573243648D-03 -.133013600134D-10  .000000000000D+00
     .192000000000D+03 -.143437500000D+02  .398480884043D-08 -.102609134059D+00
    -.646337866783D-06  .416158116423D-03  .125616788864D-04  .515373758888D+04
     .201600000000D+06 -.670552253723D-07  .287698007091D+01  .465661287308D-07
     .961910037700D+00  .136531250000D+03  .139124117766D+01 -.774246536190D-08
    -.157149403046D-10  .100000000000D+01  .233400000000D+04  .000000000000D+00
     .240000000000D+01  .000000000000D+00 -.931322574615D-08  .448000000000D+03
     .194400000000D+06  .400000000000D+01
18 24 10  1  8  0  0.0 -.656147021800D-03 -.170530256582D-11  .000000000000D+00
     .144000000000D+03  .609375000000D+01  .412017162169D-08  .186366531262D+01
     .450760126114D-06  .473614654038D-02  .121872872114D-04  .515373889923D+04
     .201600000000D+06  .000000000000D+00 -.214341050131D+00  .154599547386D-06
     .974723514793D+00  .153906250000D+03 -.298734678013D+01 -.778032408173D-08
    -.964325882329D-10  .100000000000D+01  .233400000000D+04  .000000000000D+00
     .240000000000D+01  .000000000000D+00 -.838190317154D-08  .400000000000D+03
     .194400000000D+06  .400000000000D+01
23 24 10  1  8  0  0.0  .332060735673D-03  .829913915368D-11  .000000000000D+00
     .154000000000D+03  .704687500000D+02  .436803908922D-08  .701683387290D+00
     .370480120182D-05  .474342086818D-02  .552646815777D-05  .515360845375D+04
     .201600000000D+06  .707805156708D-07  .786578514461D+00  .521540641785D-07
     .980947804048D+00  .280843750000D+03 -.294364804342D+01 -.813605318499D-08
     .226795161215D-09  .100000000000D+01  .233400000000D+04  .000000000000D+00
     .240000000000D+01  .000000000000D+00 -.838190317154D-08  .666000000000D+03
     .194400000000D+06  .400000000000D+01
23 24 10  1  8 59 44.0  .332089606673D-03  .829913915368D-11  .000000000000D+00
     .155000000000D+03  .758437500000D+02  .437161066656D-08  .122428790037D+01
     .408664345741D-05  .474396196660D-02  .590458512306D-05  .515361024666D+04
     .205184000000D+06  .763684511185D-07  .786549317542D+00  .614672899246D-07
     .980948614504D+00  .275406250000D+03 -.294347673718D+01 -.813748181592D-08
     .233224000430D-09  .100000000000D+01  .233400000000D+04  .000000000000D+00
     .240000000000D+01  .000000000000D+00 -.838190317154D-08  .667000000000D+03
     .198000000000D+06  .400000000000D+01
2  24 10  1 10  0  0.0 -.346544664353D-03  .807176547823D-11  .000000000000D+00
     .320000000000D+02 -.146875000000D+01  .423053336155D-08 -.123081907765D+01
    -.176951289177D-06  .161798131885D-01  .130385160446D-04  .515369340897D+04
     .208800000000D+06 -.342726707458D-06 -.317724287292D+00 -.242143869400D-07
     .967209212672D+00  .138843750000D+03 -.112500169695D+01 -.801247660895D-08
    -.314298806093D-10  .100000000000D+01  .233400000000D+04  .000000000000D+00
     .240000000000D+01  .000000000000D+00 -.176951289177D-07  .320000000000D+02
     .201600000000D+06  .400000000000D+01
1  24 10  1 10  0  0.0  .183751806617D-03 -.101181285572D-10  .000000000000D+00
     .520000000000D+02  .706875000000D+02  .616168523035D-08  .804821938236D-01
     .373646616936D-05  .135017913999D-01  .561773777008D-05  .515362028122D+04
     .208800000000D+06 -.102445483208D-06 -.231259620914D+01  .238418579102D-06
     .953710579359D+00  .270062500000D+03  .103548838171D+01 -.855928510001D-08
     .466805158594D-09  .100000000000D+01  .233400000000D+04  .000000000000D+00
     .240000000000D+01  .630000000000D+02 -.195577740669D-07  .520000000000D+02
     .201600000000D+06  .400000000000D+01
12 24 10  1 10  0  0.0 -.542014837265D-03 -.272848410532D-11  .000000000000D+00
     .700000000000D+01  .678125000000D+02  .465233664564D-08  .135992310788D+01
     .341795384884D-05  .872024567798D-02  .568851828575D-05  .515358698082D+04
     .208800000000D+06 -.145286321640D-06 -.225904955704D+01 -.162050127983D-06
     .961604614052D+00  .268593750000D+03  .146314265182D+01 -.833927593574D-08
     .508235455761D-09  .100000000000D+01  .233400000000D+04  .000000000000D+00
     .240000000000D+01  .000000000000D+00 -.125728547573D-07  .700000000000D+01
     .201600000000D+06  .400000000000D+01
